NORAD_CAT_ID,OBJECT_NAME,OBJECT_TYPE,EPOCH,MEAN_MOTION,ECCENTRICITY,INCLINATION,RA_OF_ASC_NODE,ARG_OF_PERICENTER,MEAN_ANOMALY,BSTAR,MEAN_MOTION_DOT,MEAN_MOTION_DDOT,TLE_LINE0,TLE_LINE1,TLE_LINE2,SEMIMAJOR_AXIS,PERIOD,APOGEE,PERIGEE,DECAYED
55934.0,STARLINK-5927,PAYLOAD,2023-12-24 04:13:58,14.98335211,0.0002787,69.9996,157.9091,271.8282,88.2558,-1.254e-06,-1.08e-06,0.0,0 STARLINK-5927,1 55934U 23037W   23358.17636863 -.00000108  00000-0 -12540-5 0  9990,2 55934  69.9996 157.9091 0002787 271.8282  88.2558 14.98335211 43518,6950.177,96.107,573.979,570.105,0.0
55934.0,STARLINK-5927,PAYLOAD,2023-12-24 12:14:34,14.98373891,0.0002727,69.9995,157.0671,269.7218,90.3628,0.00042567,4.995e-05,0.0,0 STARLINK-5927,1 55934U 23037W   23358.51012705  .00004995  00000-0  42567-3 0  9997,2 55934  69.9995 157.0671 0002727 269.7218  90.3628 14.98373891 43564,6950.057,96.104,573.817,570.027,0.0
55934.0,STARLINK-5927,PAYLOAD,2023-12-24 13:50:42,14.98373562,0.0002807,69.9994,156.8987,271.9149,88.1688,0.00041338,4.848e-05,0.0,0 STARLINK-5927,1 55934U 23037W   23358.57688603  .00004848  00000-0  41338-3 0  9991,2 55934  69.9994 156.8987 0002807 271.9149  88.1688 14.98373562 43237,6950.058,96.104,573.874,569.972,0.0
55934.0,STARLINK-5927,PAYLOAD,2023-12-24 20:15:18,14.98326849,0.0002981,69.9994,156.2254,265.3918,94.69,-0.00011232,-1.433e-05,0.0,0 STARLINK-5927,1 55934U 23037W   23358.84396606 -.00001433  00000-0 -11232-3 0  9999,2 55934  69.9994 156.2254 0002981 265.3918  94.6900 14.98326849 43619,6950.203,96.107,574.139,569.996,0.0
55934.0,STARLINK-5927,PAYLOAD,2023-12-25 13:52:47,14.98324139,0.000288,69.9997,154.3741,266.8577,93.2252,-4.7538e-05,-6.6e-06,0.0,0 STARLINK-5927,1 55934U 23037W   23359.57832669 -.00000660  00000-0 -47538-4 0  9994,2 55934  69.9997 154.3741 0002880 266.8577  93.2252 14.98324139 43386,6950.211,96.107,574.078,570.074,0.0
55934.0,STARLINK-5927,PAYLOAD,2023-12-25 20:17:19,14.98326707,0.0002903,69.9998,153.7012,266.7016,93.3811,-5.6657e-05,-7.69e-06,0.0,0 STARLINK-5927,1 55934U 23037W   23359.84536560 -.00000769  00000-0 -56657-4 0  9997,2 55934  69.9998 153.7012 0002903 266.7016  93.3811 14.98326707 43761,6950.203,96.107,574.086,570.05,0.0
55934.0,STARLINK-5927,PAYLOAD,2023-12-26 13:54:48,14.98340721,0.0002828,70.0001,151.85,266.182,93.9015,-0.00046407,-5.627e-05,0.0,0 STARLINK-5927,1 55934U 23037W   23360.57972766 -.00005627  00000-0 -46407-3 0  9990,2 55934  70.0001 151.8500 0002828 266.1820  93.9015 14.98340721 43532,6950.16,96.106,573.99,570.059,0.0
55934.0,STARLINK-5927,PAYLOAD,2023-12-26 20:19:20,14.98341419,0.0002784,70.0002,151.1766,266.1266,93.9575,-0.00043591,-5.292e-05,0.0,0 STARLINK-5927,1 55934U 23037W   23360.84676532 -.00005292  00000-0 -43591-3 0  9991,2 55934  70.0002 151.1766 0002784 266.1266  93.9575 14.98341419 43913,6950.158,96.106,573.958,570.088,0.0
55934.0,STARLINK-5927,PAYLOAD,2023-12-27 13:56:49,14.9832535,0.0003008,69.9998,149.3251,267.603,92.4785,4.596e-05,4.55e-06,0.0,0 STARLINK-5927,1 55934U 23037W   23361.58112717  .00000455  00000-0  45960-4 0  9990,2 55934  69.9998 149.3251 0003008 267.6030  92.4785 14.98325350 43684,6950.207,96.107,574.163,569.982,0.0
55934.0,STARLINK-5927,PAYLOAD,2023-12-27 20:21:21,14.98328558,0.0002973,69.9999,148.6517,267.3824,92.6995,8.117e-05,8.76e-06,0.0,0 STARLINK-5927,1 55934U 23037W   23361.84816483  .00000876  00000-0  81170-4 0  9990,2 55934  69.9999 148.6517 0002973 267.3824  92.6995 14.98328558 43723,6950.197,96.107,574.129,569.996,0.0
55934.0,STARLINK-5927,PAYLOAD,2023-12-28 12:22:42,14.9832111,0.000294,69.9999,146.9684,267.0569,93.0254,6.8075e-05,7.19e-06,0.0,0 STARLINK-5927,1 55934U 23037W   23362.51577217  .00000719  00000-0  68075-4 0  9999,2 55934  69.9999 146.9684 0002940 267.0569  93.0254 14.98321110 44165,6950.22,96.108,574.129,570.042,0.0
55934.0,STARLINK-5927,PAYLOAD,2023-12-28 13:58:50,14.98320987,0.0002943,69.9999,146.8001,267.0914,92.9908,6.4871e-05,6.81e-06,0.0,0 STARLINK-5927,1 55934U 23037W   23362.58253266  .00000681  00000-0  64871-4 0  9999,2 55934  69.9999 146.8001 0002943 267.0914  92.9908 14.98320987 43832,6950.221,96.108,574.131,570.04,0.0
55934.0,STARLINK-5927,PAYLOAD,2023-12-28 21:59:30,14.98360001,0.0002884,69.9998,145.9582,276.2642,83.8189,-0.00048814,-5.917e-05,0.0,0 STARLINK-5927,1 55934U 23037W   23362.91632088 -.00005917  00000-0 -48814-3 0  9996,2 55934  69.9998 145.9582 0002884 276.2642  83.8189 14.98360001 43885,6950.1,96.105,573.97,569.961,0.0
55934.0,STARLINK-5927,PAYLOAD,2023-12-29 10:48:35,14.98329644,0.0002934,70.0,144.6121,272.0857,87.9966,-1.6479e-05,-2.9e-06,0.0,0 STARLINK-5927,1 55934U 23037W   23363.45041147 -.00000290  00000-0 -16479-4 0  9998,2 55934  70.0000 144.6121 0002934 272.0857  87.9966 14.98329644 44309,6950.194,96.107,574.098,570.02,0.0
55934.0,STARLINK-5927,PAYLOAD,2023-12-29 14:00:51,14.98328952,0.0002955,70.0,144.2754,271.5795,88.5025,-2.5067e-05,-3.92e-06,0.0,0 STARLINK-5927,1 55934U 23037W   23363.58393207 -.00000392  00000-0 -25067-4 0  9995,2 55934  70.0000 144.2754 0002955 271.5795  88.5025 14.98328952 43982,6950.196,96.107,574.115,570.007,0.0
55934.0,STARLINK-5927,PAYLOAD,2023-12-29 18:49:15,14.98331469,0.0002931,70.0,143.7704,271.1001,88.9823,5.6555e-06,-2.6e-07,0.0,0 STARLINK-5927,1 55934U 23037W   23363.78420955 -.00000026  00000-0  56555-5 0  9998,2 55934  70.0000 143.7704 0002931 271.1001  88.9823 14.98331469 44013,6950.188,96.107,574.09,570.016,0.0
55934.0,STARLINK-5927,PAYLOAD,2023-12-30 12:26:44,14.9832943,0.0002991,69.9999,141.9188,270.5201,89.5616,9.1221e-06,1.6e-07,0.0,0 STARLINK-5927,1 55934U 23037W   23364.51857013  .00000016  00000-0  91221-5 0  9996,2 55934  69.9999 141.9188 0002991 270.5201  89.5616 14.98329430 44465,6950.195,96.107,574.138,569.981,0.0
55934.0,STARLINK-5927,PAYLOAD,2023-12-30 14:02:52,14.98329362,0.0002995,69.9999,141.7505,270.4676,89.6139,8.0161e-06,3e-08,0.0,0 STARLINK-5927,1 55934U 23037W   23364.58533020  .00000003  00000-0  80161-5 0  9999,2 55934  69.9999 141.7505 0002995 270.4676  89.6139 14.98329362 44134,6950.195,96.107,574.141,569.978,0.0
55934.0,STARLINK-5927,PAYLOAD,2023-12-30 18:51:16,14.98330979,0.0002986,69.9999,141.2454,270.0588,90.0229,2.5784e-05,2.15e-06,0.0,0 STARLINK-5927,1 55934U 23037W   23364.78560859  .00000215  00000-0  25784-4 0  9995,2 55934  69.9999 141.2454 0002986 270.0588  90.0229 14.98330979 44165,6950.19,96.107,574.13,569.98,0.0
55934.0,STARLINK-5927,PAYLOAD,2023-12-31 12:28:45,14.98327206,0.0002841,70.0002,139.3947,261.3474,98.7363,-2.8229e-05,-4.3e-06,0.0,0 STARLINK-5927,1 55934U 23037W   23365.51997247 -.00000430  00000-0 -28229-4 0  9990,2 55934  70.0002 139.3947 0002841 261.3474  98.7363 14.98327206 44618,6950.202,96.107,574.041,570.092,0.0
55934.0,STARLINK-5927,PAYLOAD,2023-12-31 18:53:17,14.98327645,0.0002842,70.0003,138.7216,261.9771,98.1066,-2.1635e-05,-3.51e-06,0.0,0 STARLINK-5927,1 55934U 23037W   23365.78701239 -.00000351  00000-0 -21635-4 0  9999,2 55934  70.0003 138.7216 0002842 261.9771  98.1066 14.98327645 44316,6950.2,96.107,574.04,570.09,0.0
55934.0,STARLINK-5927,PAYLOAD,2024-01-01 12:30:46,14.98331499,0.0002953,70.0,136.8691,266.4551,93.627,1.4677e-05,8.2e-07,0.0,0 STARLINK-5927,1 55934U 23037W   24001.52136842  .00000082  00000-0  14677-4 0  9998,2 55934  70.0000 136.8691 0002953 266.4551  93.6270 14.98331499 44766,6950.188,96.107,574.106,570.001,0.0
55934.0,STARLINK-5927,PAYLOAD,2024-01-01 14:06:54,14.9833118,0.0003113,69.9997,136.7007,270.5444,89.5358,2.2463e-05,1.75e-06,0.0,0 STARLINK-5927,1 55934U 23037W   24001.58812854  .00000175  00000-0  22463-4 0  9993,2 55934  69.9997 136.7007 0003113 270.5444  89.5358 14.98331180 44436,6950.189,96.107,574.218,569.891,0.0
55934.0,STARLINK-5927,PAYLOAD,2024-01-01 18:55:18,14.98333419,0.0002935,70.0001,136.1959,266.4175,93.6648,3.6204e-05,3.39e-06,0.0,0 STARLINK-5927,1 55934U 23037W   24001.78840622  .00000339  00000-0  36204-4 0  9999,2 55934  70.0001 136.1959 0002935 266.4175  93.6648 14.98333419 44469,6950.182,96.107,574.087,570.007,0.0
55934.0,STARLINK-5927,PAYLOAD,2024-01-02 12:32:47,14.98329866,0.0002992,70.0,134.3446,267.0196,93.0621,2.9008e-05,2.53e-06,0.0,0 STARLINK-5927,1 55934U 23037W   24002.52276770  .00000253  00000-0  29008-4 0  9998,2 55934  70.0000 134.3446 0002992 267.0196  93.0621 14.98329866 44918,6950.193,96.107,574.138,569.979,0.0
55934.0,STARLINK-5927,PAYLOAD,2024-01-02 14:08:54,14.98346979,0.0002611,70.0003,134.1772,257.7261,102.3606,-0.00021939,-2.711e-05,0.0,0 STARLINK-5927,1 55934U 23037W   24002.58952371 -.00002711  00000-0 -21939-3 0  9999,2 55934  70.0003 134.1772 0002611 257.7261 102.3606 14.98346979 44582,6950.14,96.106,573.82,570.191,0.0
55934.0,STARLINK-5927,PAYLOAD,2024-01-02 18:57:19,14.98333802,0.0003,70.0,133.6713,270.5837,89.4978,8.3227e-05,9e-06,0.0,0 STARLINK-5927,1 55934U 23037W   24002.78980346  .00000900  00000-0  83227-4 0  9999,2 55934  70.0000 133.6713 0003000 270.5837  89.4978 14.98333802 44615,6950.181,96.107,574.131,569.961,0.0
55934.0,STARLINK-5927,PAYLOAD,2024-01-03 10:58:40,14.98325298,0.0003032,69.9997,131.9874,267.6561,92.4251,-7.5424e-05,-9.93e-06,0.0,0 STARLINK-5927,1 55934U 23037W   24003.45741296 -.00000993  00000-0 -75424-4 0  9997,2 55934  69.9997 131.9874 0003032 267.6561  92.4251 14.98325298 45059,6950.207,96.107,574.18,569.965,0.0
55934.0,STARLINK-5927,PAYLOAD,2024-01-03 12:34:48,14.98325225,0.0002982,69.9998,131.8191,266.8332,93.2486,-7.4936e-05,-9.87e-06,0.0,0 STARLINK-5927,1 55934U 23037W   24003.52417310 -.00000987  00000-0 -74936-4 0  9992,2 55934  69.9998 131.8191 0002982 266.8332  93.2486 14.98325225 44723,6950.208,96.107,574.145,570.0,0.0
55934.0,STARLINK-5927,PAYLOAD,2024-01-03 17:23:12,14.98327197,0.0002758,69.9995,131.3141,262.4259,97.6587,-5.2626e-05,-7.21e-06,0.0,0 STARLINK-5927,1 55934U 23037W   24003.72445174 -.00000721  00000-0 -52626-4 0  9991,2 55934  69.9995 131.3141 0002758 262.4259  97.6587 14.98327197 44754,6950.202,96.107,573.983,570.15,0.0
